[Satellite]
VERSION=1.1
NAME=GALAXY 23 (G-23)
NICKNAME=GALAXY 23 (G-23)
TLE1=1 27854U 03034A   15051.40165216 -.00000010  00000-0  00000+0 0  9994
TLE2=2 27854   0.0153  94.1686 0002748 243.9551 195.4492  1.00272221 42176
